{
  "norad_id": 62653,
  "name": "PAUSAT-1",
  "history": [
    {
      "epoch": "2026-03-28T21:41:59.351424Z",
      "apogee_km": 497.6213930307358,
      "perigee_km": 496.4240152166658,
      "latitude_deg": -3.126882889203461e-05,
      "longitude_deg": 16.909890575710055,
      "height_km": 500.69249608467146,
      "semi_major_axis_km": 6875.159704123701,
      "eccentricity": 8.708e-05,
      "inclination_deg": 97.3981,
      "raan_deg": 168.7251,
      "arg_perigee_deg": 164.0016,
      "mean_anomaly_deg": 196.1248,
      "mean_motion_rev_day": 15.22925209
    },
    {
      "epoch": "2026-03-29T04:00:27.021888Z",
      "apogee_km": 497.61952107721663,
      "perigee_km": 496.3943704260837,
      "latitude_deg": -6.372913685058426e-05,
      "longitude_deg": -77.70554625428962,
      "height_km": 500.68889536817494,
      "semi_major_axis_km": 6875.14394575165,
      "eccentricity": 8.91e-05,
      "inclination_deg": 97.3981,
      "raan_deg": 168.984,
      "arg_perigee_deg": 163.6034,
      "mean_anomaly_deg": 196.5231,
      "mean_motion_rev_day": 15.22930445
    }
  ]
}